[{"addressLine1":"128 Reinger Passage","addressLine2":null,"city":"Lake Micheal","state":"Port Kassandrastad","zip":"26017-3687"},{"addressLine1":"170 Aric Tunnel","addressLine2":"Suite 692","city":"Tillmanbury","state":"West Estellemouth","zip":"29669-3282"},{"addressLine1":"4775 Arden Park","addressLine2":null,"city":"Batzbury","state":"North Clementinetown","zip":"19356-3200"},{"addressLine1":"68718 Alexandre Causeway","addressLine2":null,"city":"Bayerborough","state":"Lulustad","zip":"84321-4503"},{"addressLine1":"5983 Wintheiser Skyway","addressLine2":"Apt. 008","city":"Port Abe","state":"Brekkefurt","zip":"63216-8050"},{"addressLine1":"772 Bernier Port","addressLine2":"Suite 695","city":"Hansenport","state":"Florenceport","zip":"92938"},{"addressLine1":"0607 Mosciski Lodge","addressLine2":null,"city":"Sharonberg","state":"Lake Myrtiehaven","zip":"16520"},{"addressLine1":"91244 Roberts Prairie","addressLine2":null,"city":"North Mayafurt","state":"New Eleazarton","zip":"19583"},{"addressLine1":"234 Hammes Street","addressLine2":null,"city":"Baileyville","state":"East Rachael","zip":"60204-6435"},{"addressLine1":"504 Erick Squares","addressLine2":"Apt. 864","city":"Martabury","state":"Turcottestad","zip":"61712-9539"},{"addressLine1":"724 Oswald Junctions","addressLine2":null,"city":"Smithambury","state":"South Daltonton","zip":"43469"},{"addressLine1":"03513 Howell Lakes","addressLine2":"Apt. 240","city":"Schusterburgh","state":"South Darrionberg","zip":"13610-1756"},{"addressLine1":"7343 Eldora Mountain","addressLine2":"Apt. 095","city":"Uptonborough","state":"Jonesport","zip":"23321-4643"},{"addressLine1":"87498 Price Grove","addressLine2":"Apt. 758","city":"Lake Krystel","state":"Port Tianaton","zip":"42057-3465"},{"addressLine1":"3606 Crawford Oval","addressLine2":"Suite 507","city":"Nataliemouth","state":"New Sincere","zip":"83804-1073"},{"addressLine1":"1313 Auer Expressway","addressLine2":null,"city":"Adityaside","state":"Libbietown","zip":"64167"},{"addressLine1":"5345 Hodkiewicz Heights","addressLine2":null,"city":"Marvintown","state":"Ivychester","zip":"25876"},{"addressLine1":"687 Block Mews","addressLine2":null,"city":"South Romanfort","state":"Lawsonfort","zip":"10922-8819"},{"addressLine1":"73763 Lamar Burgs","addressLine2":"Apt. 714","city":"West Christop","state":"Kirlinchester","zip":"84239-2872"},{"addressLine1":"622 Emard Locks","addressLine2":null,"city":"Karifurt","state":"Joneshaven","zip":"66144"},{"addressLine1":"5896 Huels Squares","addressLine2":"Apt. 284","city":"Oswaldoport","state":"West Monroe","zip":"58070-8329"},{"addressLine1":"5296 Will Isle","addressLine2":"Suite 303","city":"Wisozkville","state":"New Merleside","zip":"74042-8633"},{"addressLine1":"29597 Hand Keys","addressLine2":null,"city":"Lourdesside","state":"Lake Scot","zip":"59782"},{"addressLine1":"5049 Gladys Views","addressLine2":null,"city":"Julietside","state":"South Tremaynefort","zip":"50854"},{"addressLine1":"155 Eileen Via","addressLine2":"Apt. 431","city":"Lake Domenicafort","state":"Watersshire","zip":"67923"},{"addressLine1":"0902 Mylene Walks","addressLine2":null,"city":"East Maybelle","state":"West Lenore","zip":"16331-1955"},{"addressLine1":"8517 Spencer Keys","addressLine2":"Suite 393","city":"New Lucasstad","state":"North Aniyahmouth","zip":"47663-2759"},{"addressLine1":"6775 Colten Drives","addressLine2":null,"city":"South Clarissa","state":"Kutchside","zip":"22177-0431"},{"addressLine1":"30522 Graham Rapids","addressLine2":null,"city":"East Audieborough","state":"East Sunnyfort","zip":"09134-6302"},{"addressLine1":"4386 Vesta Cliff","addressLine2":"Apt. 566","city":"Kerlukeville","state":"New Lanestad","zip":"44552-4506"},{"addressLine1":"672 Boyle Mission","addressLine2":null,"city":"South Melyssafurt","state":"Lake Mollie","zip":"50868-3858"},{"addressLine1":"55238 Greenholt Shores","addressLine2":"Suite 178","city":"Boehmstad","state":"Port Phoebe","zip":"94116"},{"addressLine1":"216 Ratke Junctions","addressLine2":"Suite 988","city":"New Marques","state":"Ricestad","zip":"46063-0461"},{"addressLine1":"363 Yost Views","addressLine2":"Suite 564","city":"Harveytown","state":"Aureliaville","zip":"62719-5727"},{"addressLine1":"14328 Kozey Locks","addressLine2":"Apt. 796","city":"North Johnniechester","state":"Port Sarailand","zip":"03645"},{"addressLine1":"553 Glover Stravenue","addressLine2":null,"city":"New Ninamouth","state":"South Amely","zip":"79011-9159"},{"addressLine1":"018 Nikolaus Stream","addressLine2":"Apt. 167","city":"Reingertown","state":"South Estell","zip":"35522-2841"},{"addressLine1":"701 Ibrahim Fields","addressLine2":"Suite 981","city":"Mariannaburgh","state":"Brakustown","zip":"05320"},{"addressLine1":"3986 Hane Spur","addressLine2":"Suite 275","city":"West Elmira","state":"Lake Ima","zip":"96062"},{"addressLine1":"4775 Tyreek Street","addressLine2":null,"city":"Port Karianne","state":"Normachester","zip":"03086"},{"addressLine1":"2732 Karolann Corners","addressLine2":"Apt. 663","city":"Naomietown","state":"Port Baron","zip":"22884"},{"addressLine1":"8552 Laurel Lakes","addressLine2":null,"city":"West Rebekaside","state":"Flaviefort","zip":"66815-4429"},{"addressLine1":"37475 Abby Summit","addressLine2":null,"city":"Lake Keeley","state":"Friedrichside","zip":"76947"},{"addressLine1":"80276 Lue Square","addressLine2":"Apt. 301","city":"Sauerside","state":"South Staceyhaven","zip":"55621"},{"addressLine1":"54316 Klein Mountains","addressLine2":null,"city":"Lake Sofia","state":"Hadleyshire","zip":"61095"},{"addressLine1":"242 Beer Drive","addressLine2":"Apt. 660","city":"Trantowview","state":"Aliyaburgh","zip":"50719-7854"},{"addressLine1":"9747 Zemlak Fall","addressLine2":null,"city":"North Annabelletown","state":"Brendastad","zip":"58845-4577"},{"addressLine1":"577 Hilpert Alley","addressLine2":"Suite 541","city":"Port Brodyberg","state":"East Axel","zip":"80847-8126"},{"addressLine1":"49118 Marcelino Lodge","addressLine2":null,"city":"North Prudence","state":"Port Alaynaberg","zip":"05944"},{"addressLine1":"1731 Weimann Plains","addressLine2":null,"city":"Port Isaacmouth","state":"Gunnartown","zip":"46617-1233"},{"addressLine1":"740 Lyla Burgs","addressLine2":"Apt. 578","city":"Arjunburgh","state":"East Mikel","zip":"71651"},{"addressLine1":"717 Nyah Fork","addressLine2":null,"city":"Dinaland","state":"Jerroldfort","zip":"81580"},{"addressLine1":"20913 Wiegand Rapid","addressLine2":"Apt. 890","city":"Jarretstad","state":"Wolfborough","zip":"47839"},{"addressLine1":"651 Kassandra Falls","addressLine2":null,"city":"Humbertofurt","state":"Goodwinland","zip":"73445-0794"},{"addressLine1":"865 Jesus Square","addressLine2":null,"city":"Rosalynton","state":"Lake Murray","zip":"01354"},{"addressLine1":"9776 Ilene Garden","addressLine2":null,"city":"Darwinhaven","state":"Hammesbury","zip":"26500"},{"addressLine1":"0650 Davin Isle","addressLine2":"Suite 364","city":"Port Alisonburgh","state":"Rueckerland","zip":"65260-8932"},{"addressLine1":"8711 Wolff Bypass","addressLine2":null,"city":"South Carolyne","state":"North Orlando","zip":"01178-9806"},{"addressLine1":"4102 Nolan Streets","addressLine2":null,"city":"Powlowskiburgh","state":"South Linwoodfurt","zip":"91470"},{"addressLine1":"2816 Keara Orchard","addressLine2":null,"city":"Alanaville","state":"Port Travonville","zip":"49865-6380"},{"addressLine1":"19045 Ellsworth Ridge","addressLine2":null,"city":"North Jeffry","state":"Wilfredoburgh","zip":"26489"},{"addressLine1":"10928 Crist View","addressLine2":"Apt. 111","city":"Lake Odiechester","state":"Wisokyport","zip":"72459-6659"},{"addressLine1":"57820 Kirlin Groves","addressLine2":null,"city":"Lake Maxine","state":"East Rickey","zip":"51866"},{"addressLine1":"77109 Wolf Corners","addressLine2":"Suite 687","city":"Port Aaron","state":"North Kelvinshire","zip":"52880-5248"},{"addressLine1":"86212 Tremblay Lake","addressLine2":null,"city":"New Damienview","state":"Markstown","zip":"36257"},{"addressLine1":"640 Eulalia Gardens","addressLine2":"Apt. 108","city":"North Dudleyland","state":"East Halieton","zip":"94736"},{"addressLine1":"96781 Ella Isle","addressLine2":null,"city":"New Blanche","state":"East Coleman","zip":"36654-1128"},{"addressLine1":"487 Everardo Stravenue","addressLine2":"Apt. 541","city":"Clydeshire","state":"D'Amoreberg","zip":"22479-0022"},{"addressLine1":"45086 Tremayne Loaf","addressLine2":"Apt. 472","city":"Ornfort","state":"Lake Westley","zip":"53275-2770"},{"addressLine1":"13614 Lisandro Shores","addressLine2":"Apt. 189","city":"Marquardthaven","state":"Carterfurt","zip":"13191-6197"},{"addressLine1":"1384 Lesch Walks","addressLine2":"Suite 726","city":"West Talia","state":"West Travis","zip":"54470"},{"addressLine1":"794 Lisandro Plains","addressLine2":null,"city":"Kuhicport","state":"Gradyside","zip":"31217-4204"},{"addressLine1":"922 Purdy Rest","addressLine2":null,"city":"Jordonmouth","state":"Elnafurt","zip":"51423-7003"},{"addressLine1":"265 Lorenza Locks","addressLine2":"Apt. 228","city":"Marshallside","state":"Madonnastad","zip":"36484-4451"},{"addressLine1":"3572 Senger Loaf","addressLine2":null,"city":"South Daijahaven","state":"North Daphnemouth","zip":"34624"},{"addressLine1":"137 Lula Shore","addressLine2":"Apt. 397","city":"New Arielleland","state":"Brionnafort","zip":"99666"},{"addressLine1":"0717 Juana Viaduct","addressLine2":null,"city":"New Orville","state":"Lake Sylvesterport","zip":"44487-2099"},{"addressLine1":"4101 Maryse Squares","addressLine2":"Suite 071","city":"Schambergershire","state":"Armstrongfurt","zip":"09158-9917"},{"addressLine1":"434 Javier Hills","addressLine2":null,"city":"Migueltown","state":"DuBuquemouth","zip":"46292"},{"addressLine1":"08957 Everette Pike","addressLine2":null,"city":"Carrollfurt","state":"East Nova","zip":"74957-8643"},{"addressLine1":"3647 Hayden Forges","addressLine2":"Apt. 682","city":"North Laurenmouth","state":"Gislasonfort","zip":"70625-1462"},{"addressLine1":"8857 Kyle Brooks","addressLine2":null,"city":"New Laurianne","state":"Port Lonnie","zip":"62603"},{"addressLine1":"49197 Craig Corner","addressLine2":null,"city":"North Reymundohaven","state":"East Will","zip":"56026-3638"},{"addressLine1":"41738 Paige Ridges","addressLine2":null,"city":"West Romanburgh","state":"Mauriciobury","zip":"94829-4288"},{"addressLine1":"31719 Lavinia Camp","addressLine2":null,"city":"Effertzmouth","state":"West Lavinia","zip":"44339"},{"addressLine1":"1983 Smith Cape","addressLine2":null,"city":"Kyleighville","state":"South Keshawn","zip":"05630"},{"addressLine1":"294 Arnulfo Motorway","addressLine2":null,"city":"North Rosalee","state":"Leannonmouth","zip":"30613"},{"addressLine1":"0808 Maureen Track","addressLine2":null,"city":"Port Lewiston","state":"South Kendallburgh","zip":"34383"},{"addressLine1":"6235 Renee Turnpike","addressLine2":"Suite 657","city":"Ivatown","state":"Lake Herbert","zip":"51389-5977"},{"addressLine1":"7424 Purdy Lane","addressLine2":"Suite 907","city":"South Genebury","state":"Lianaton","zip":"83181"},{"addressLine1":"83697 Dorcas Turnpike","addressLine2":null,"city":"Sydnibury","state":"East Dandreland","zip":"06394-3215"},{"addressLine1":"9752 Meagan Course","addressLine2":null,"city":"Port Nettie","state":"West William","zip":"11686-3520"},{"addressLine1":"33621 Conn Spring","addressLine2":"Apt. 710","city":"Keatonshire","state":"Port Geovanny","zip":"65870"},{"addressLine1":"71152 Miller Crossing","addressLine2":null,"city":"North Antoniomouth","state":"East Eric","zip":"38896-4494"},{"addressLine1":"1924 Pollich Rapids","addressLine2":"Apt. 551","city":"Lindshire","state":"Myraview","zip":"68728-6692"},{"addressLine1":"124 Hirthe Pine","addressLine2":null,"city":"South Oraland","state":"Lake Lilian","zip":"03368"},{"addressLine1":"985 Danny View","addressLine2":"Suite 327","city":"Lake Leoport","state":"Lake Neha","zip":"00688"},{"addressLine1":"8128 Mohr Rapids","addressLine2":null,"city":"Walkerside","state":"Port Marysemouth","zip":"59325-6957"},{"addressLine1":"723 Dorthy Common","addressLine2":null,"city":"North Kay","state":"Heidenreichland","zip":"29082-1048"},{"addressLine1":"458 Mitchell Extension","addressLine2":"Apt. 217","city":"East Lolitahaven","state":"Port Skye","zip":"15489"}]